LEMUR-2-MARACHE-FRAN    
1 63262U 25052BE  26068.70885648  .00008220  00000+0  68460-3 0  9999
2 63262  97.6985 323.5335 0002324  45.7689 314.3725 14.98898773 53859
STARLINK-36182          
1 67192U 25304A   26068.68352787  .00003262  00000+0  28104-3 0  9997
2 67192  70.0026 174.4842 0003805 265.7123  94.3601 14.98330411 13858
